ONEWEB-0208             
1 48243U 21031AK  25283.41750745 -.00000196  00000+0 -56184-3 0  9995
2 48243  87.9050 339.4527 0002060 101.4467 258.6894 13.14503525215498
ONEWEB-0200             
1 48244U 21031AL  25283.22879735  .00000269  00000+0  69072-3 0  9995
2 48244  87.9052 339.4803 0001991  99.5558 260.5796 13.14501477215394
ONEWEB-0217             
1 48245U 21031AM  25283.39689360  .00000083  00000+0  19046-3 0  9997
2 48245  87.9063 339.4360 0002127 104.5065 255.6300 13.14502540215362
ONEWEB-0211             
1 48767U 21045A   25283.45792778  .00000051  00000+0  10058-3 0  9995
2 48767  87.8989 308.9660 0001815 104.9889 255.1442 13.16087068211590
ONEWEB-0223             
1 48768U 21045B   25283.49706421  .00000025  00000+0  32077-4 0  9997
2 48768  87.8980 309.0142 0001765 109.6041 250.5280 13.15548286211575
ONEWEB-0230             
1 48769U 21045C   25283.46853737  .00000011  00000+0 -39983-5 0  9998
2 48769  87.8976 309.0515 0001757  92.8305 267.3026 13.15546348211832
ONEWEB-0237             
1 48770U 21045D   25283.53350846  .00000109  00000+0  25439-3 0  9997
2 48770  87.8980 309.0371 0001659 100.5311 259.6006 13.15548053211561
ONEWEB-0235             
1 48771U 21045E   25283.50815675  .00000065  00000+0  13899-3 0  9999
2 48771  87.8976 309.0127 0001675 109.7211 250.4100 13.15548346211552
ONEWEB-0242             
1 48772U 21045F   25283.50180904 -.00000064  00000+0 -20391-3 0  9996
2 48772  87.8987 309.0025 0001685  96.8492 263.2830 13.15546774211599
ONEWEB-0241             
1 48773U 21045G   25283.48913775 -.00000209  00000+0 -58897-3 0  9997
2 48773  87.8976 309.0494 0002057 107.2358 252.8997 13.15546479211501
ONEWEB-0243             
1 48774U 21045H   25283.52082666  .00000160  00000+0  39037-3 0  9998
2 48774  87.8981 309.0485 0001566 105.3404 254.7900 13.15547319211535
ONEWEB-0222             
1 48775U 21045J   25283.50419625 -.00000020  00000+0 -87430-4 0  9994
2 48775  87.8981 309.0034 0001825  99.7394 260.3942 13.15548517211572
ONEWEB-0244             
1 48776U 21045K   25283.53032792  .00000143  00000+0  34488-3 0  9992
2 48776  87.8990 308.9825 0001754  99.1908 260.9421 13.15547187212149
ONEWEB-0247             
1 48777U 21045L   25283.45110766  .00000243  00000+0  61036-3 0  9992
2 48777  87.8979 309.0636 0001481 127.7439 232.3825 13.15548199211574
ONEWEB-0245             
1 48778U 21045M   25283.52241615  .00000228  00000+0  57086-3 0  9992
2 48778  87.8975 309.0135 0001962  99.4394 260.6958 13.15549002211557
ONEWEB-0229             
1 48779U 21045N   25283.13737222  .00000131  00000+0  31352-3 0  9995
2 48779  87.8979 309.0899 0001736  96.6061 263.5267 13.15548258211533
ONEWEB-0228             
1 48780U 21045P   25283.47501870 -.00000092  00000+0 -27750-3 0  9997
2 48780  87.8987 308.9999 0001814  98.0827 262.0509 13.15547292211491
ONEWEB-0232             
1 48781U 21045Q   25283.52558957  .00000203  00000+0  50483-3 0  9993
2 48781  87.8981 308.9812 0001836  96.0080 264.1260 13.15549019211826
ONEWEB-0231             
1 48782U 21045R   25283.12311688  .00000067  00000+0  14322-3 0  9998
2 48782  87.8974 309.1117 0001666 102.9285 257.2031 13.15548277211469
ONEWEB-0234             
1 48783U 21045S   25283.46523589 -.00000023  00000+0 -94165-4 0  9999
2 48783  87.8983 309.0140 0002744  92.5651 267.5793 13.15547951211641
ONEWEB-0238             
1 48784U 21045T   25283.46550758 -.00000019  00000+0 -83725-4 0  9993
2 48784  87.8982 309.0091 0002232  92.4381 267.7005 13.15546840211540
ONEWEB-0240             
1 48785U 21045U   25283.48674284 -.00000136  00000+0 -39425-3 0  9994
2 48785  87.8984 308.9914 0002018 104.6575 255.4779 13.15546657211579
ONEWEB-0246             
1 48786U 21045V   25283.48121110 -.00000138  00000+0 -40018-3 0  9992
2 48786  87.8988 309.0056 0001714  96.6633 263.4693 13.15546784211441
ONEWEB-0210             
1 48787U 21045W   25283.45586333  .00000079  00000+0  17615-3 0  9991
2 48787  87.8988 309.0095 0001352 113.7141 246.4131 13.15546632211482
ONEWEB-0214             
1 48788U 21045X   25283.46456527  .00000043  00000+0  80267-4 0  9999
2 48788  87.8988 308.9956 0001427  97.6336 262.4957 13.15546507211458
ONEWEB-0221             
1 48789U 21045Y   25283.47171404 -.00000074  00000+0 -23182-3 0  9997
2 48789  87.8979 309.0174 0001806 103.1057 257.0275 13.15547438211544
ONEWEB-0213             
1 48790U 21045Z   25283.46061267  .00000117  00000+0  27791-3 0  9999
2 48790  87.8983 309.0289 0001741 102.0368 258.0957 13.15546630211607
ONEWEB-0212             
1 48791U 21045AA  25283.51367655  .00000025  00000+0  32149-4 0  9998
2 48791  87.8984 309.0024 0001903  95.1483 264.9865 13.15550443211607
ONEWEB-0227             
1 48792U 21045AB  25283.51291205  .00000117  00000+0  27783-3 0  9995
2 48792  87.8974 309.0194 0001834  99.5610 260.5728 13.15548195211553
ONEWEB-0226             
1 48793U 21045AC  25283.50656771  .00000050  00000+0  99165-4 0  9998
2 48793  87.8975 309.0281 0001522 102.1388 257.9912 13.15547451211525
ONEWEB-0224             
1 48794U 21045AD  25283.47012865 -.00000031  00000+0 -11706-3 0  9990
2 48794  87.8981 309.0707 0002688 109.3938 250.7483 13.15548732211448
ONEWEB-0233             
1 48795U 21045AE  25283.47473519 -.00000050  00000+0 -16617-3 0  9995
2 48795  87.8982 309.0810 0001951 105.3078 254.8268 13.15546626211466
ONEWEB-0190             
1 48796U 21045AF  25283.46220067  .00000078  00000+0  17233-3 0  9996
2 48796  87.8986 309.0460 0001695 119.9456 240.1842 13.15547878211532
ONEWEB-0236             
1 48797U 21045AG  25283.47962669 -.00000118  00000+0 -34787-3 0  9999
2 48797  87.8976 309.0532 0001967  92.3044 267.8311 13.15547169211429
ONEWEB-0248             
1 48798U 21045AH  25283.49230413 -.00000114  00000+0 -33710-3 0  9998
2 48798  87.8987 309.0081 0002144 112.3545 247.7812 13.15546729211589
ONEWEB-0225             
1 48799U 21045AJ  25283.51448838  .00000165  00000+0  40402-3 0  9994
2 48799  87.8977 309.0329 0001723 114.9715 245.1594 13.15546996211599
ONEWEB-0215             
1 48800U 21045AK  25283.48438564 -.00000175  00000+0 -49947-3 0  9994
2 48800  87.8990 308.9930 0001962 116.6340 243.4991 13.15548868211469
ONEWEB-0216             
1 48801U 21045AL  25283.49389240 -.00000104  00000+0 -30931-3 0  9997
2 48801  87.8976 309.0288 0001625  94.5136 265.6180 13.15549050211476
ONEWEB-0239             
1 48802U 21045AM  25283.49864005 -.00000003  00000+0 -41672-4 0  9998
2 48802  87.8976 309.0426 0002174 116.5623 243.5730 13.15546979211515
ONEWEB-0249             
1 48967U 21060A   25283.47807635 -.00001380  00000+0 -36442-2 0  9997
2 48967  87.8970 278.5312 0001826  90.9469 269.1871 13.16585827206757
ONEWEB-0250             
1 48968U 21060B   25283.43216181  .00000029  00000+0  34956-4 0  9991
2 48968  87.8962 277.1146 0002821  99.2542 260.8913 13.25815525207127
ONEWEB-0252             
1 48970U 21060D   25283.43375685  .00000093  00000+0  20944-3 0  9991
2 48970  87.8963 278.5340 0001567  87.9597 272.1714 13.16596677206793
ONEWEB-0253             
1 48971U 21060E   25283.49866027 -.00000013  00000+0 -67330-4 0  9998
2 48971  87.8969 278.5247 0001784  95.7126 264.4208 13.16594980206733
ONEWEB-0254             
1 48972U 21060F   25283.43217591  .00000039  00000+0  67399-4 0  9990
2 48972  87.8974 278.5262 0001966 102.0426 258.0926 13.16596521206722
ONEWEB-0255             
1 48973U 21060G   25283.47017109 -.00000012  00000+0 -65106-4 0  9995
2 48973  87.8962 278.5418 0001908  97.5359 262.5989 13.16594384206805
ONEWEB-0256             
1 48974U 21060H   25283.49629074 -.00000031  00000+0 -11433-3 0  9992
2 48974  87.8961 278.5471 0001834  85.4569 274.6771 13.16594251206773
ONEWEB-0257             
1 48975U 21060J   25283.45275147  .00000035  00000+0  57063-4 0  9999
2 48975  87.8968 278.5277 0001753  93.7554 266.3777 13.16593697206723
ONEWEB-0258             
1 48976U 21060K   25283.45434223  .00000074  00000+0  15978-3 0  9993
2 48976  87.8958 278.5481 0001953  89.9697 270.1657 13.16594622206737
ONEWEB-0259             
1 48977U 21060L   25283.44801147  .00000206  00000+0  50490-3 0  9991
2 48977  87.8965 278.5374 0001840  93.8396 266.2946 13.16593233206769
ONEWEB-0260             
1 48978U 21060M   25283.43929436  .00000192  00000+0  46940-3 0  9992
2 48978  87.8955 278.5601 0001506  78.6732 281.4568 13.16591887206746
ONEWEB-0261             
1 48979U 21060N   25283.48520227 -.00000084  00000+0 -25398-3 0  9999
2 48979  87.8961 278.5526 0001618 101.4121 258.7192 13.16596755206807
ONEWEB-0262             
1 48980U 21060P   25283.46542241  .00000024  00000+0  28001-4 0  9996
2 48980  87.8970 278.5235 0002082  97.2823 262.8545 13.16594498206768
ONEWEB-0263             
1 48981U 21060Q   25283.49708598 -.00000024  00000+0 -96685-4 0  9994
2 48981  87.8960 278.5367 0001770 102.3419 257.7910 13.16593561206732
ONEWEB-0264             
1 48982U 21060R   25283.45830017  .00000040  00000+0  71936-4 0  9991
2 48982  87.8962 278.5489 0001609  90.9683 269.1632 13.16596282206737
ONEWEB-0266             
1 48984U 21060T   25283.47967200 -.00000088  00000+0 -26330-3 0  9991
2 48984  87.8972 278.5242 0002068  90.1778 269.9590 13.16593873206727
ONEWEB-0267             
1 48985U 21060U   25283.49073664  .00000082  00000+0  17974-3 0  9992
2 48985  87.8967 278.5238 0001584  99.3058 260.8252 13.16593388206738
ONEWEB-0268             
1 48986U 21060V   25283.45908377  .00000041  00000+0  73290-4 0  9996
2 48986  87.8969 278.5368 0001766  88.0519 272.0814 13.16594029206994
ONEWEB-0269             
1 48987U 21060W   25283.44009787  .00000113  00000+0  26062-3 0  9997
2 48987  87.8955 278.5692 0001827  80.4652 279.6685 13.16596392206761
ONEWEB-0270             
1 48988U 21060X   25283.45750542  .00000095  00000+0  21507-3 0  9999
2 48988  87.8967 278.5391 0001885 101.9515 258.1827 13.16597443206805
